OBJECT_NAME,OBJECT_ID,EPOCH,MEAN_MOTION,ECCENTRICITY,INCLINATION,RA_OF_ASC_NODE,ARG_OF_PERICENTER,MEAN_ANOMALY,EPHEMERIS_TYPE,CLASSIFICATION_TYPE,NORAD_CAT_ID,ELEMENT_SET_NO,REV_AT_EPOCH,BSTAR,MEAN_MOTION_DOT,MEAN_MOTION_DDOT
BEIDOU-3 M14 (C33),2018-072B,2026-05-09T04:53:01.332096,1.86231536,.0006695,56.5941,63.9398,345.6638,14.3071,0,U,43623,999,5192,0,-.2E-6,0
BEIDOU-3 M16 (C35),2018-078A,2026-05-09T08:37:34.332960,1.86232384,.0007924,54.1265,301.3466,39.4697,320.5792,0,U,43647,999,5143,0,-.37E-6,0
BEIDOU-3 M15 (C34),2018-078B,2026-05-08T22:50:33.333216,1.86232655,.0005076,54.1224,301.3614,51.5027,308.5335,0,U,43648,999,5144,0,-.37E-6,0
BEIDOU-3 G1 (C59),2018-085A,2026-05-09T18:54:03.658176,1.00273289,.0007658,2.9768,98.3855,337.7753,234.9310,0,U,43683,999,2767,0,-.97E-6,0
BEIDOU-3 M17 (C36),2018-093A,2026-05-09T05:58:49.985760,1.86228609,.0009134,54.1671,183.6178,291.2507,160.2904,0,U,43706,999,5081,0,.44E-6,0
BEIDOU-3 M18 (C37),2018-093B,2026-05-07T08:45:16.145280,1.86226701,.00072481,54.1680,183.6737,323.3441,36.6857,0,U,43707,999,5078,0,.32E-6,0
BEIDOU-3 IGSO-1 (C38),2019-023A,2026-05-09T15:45:46.918656,1.00251812,.0024009,58.6428,38.0490,234.3721,307.0515,0,U,44204,999,682,0,-.217E-5,0
BEIDOU-2 G8 (C01),2019-027A,2026-05-09T18:49:34.090176,1.00274787,.0011081,1.5606,74.4096,282.0758,298.0100,0,U,44231,999,2569,0,-.237E-5,0
BEIDOU-3 IGSO-2 (C39),2019-035A,2026-05-09T12:23:58.164288,1.00279427,.0039521,55.2384,159.2020,215.2739,158.7000,0,U,44337,999,2528,0,-.73E-6,0
BEIDOU-3 M24 (C46),2019-061A,2026-05-09T01:04:30.548064,1.86229217,.00081034,54.3946,184.0482,3.6991,356.3835,0,U,44542,999,4506,0,.42E-6,0
BEIDOU-3 M23 (C45),2019-061B,2026-05-09T06:02:16.738368,1.86227742,.0005129,54.3931,184.0098,344.8604,65.7036,0,U,44543,999,4507,0,.44E-6,0
BEIDOU-3 IGSO-3 (C40),2019-073A,2026-04-30T20:24:33.185376,1.00251230,.00424046,54.8842,281.4069,188.8195,170.9972,0,U,44709,999,2398,0,-.212E-5,0
BEIDOU-3 M22 (C44),2019-078A,2026-05-09T10:06:16.219584,1.86227546,.0007198,53.9723,301.1911,47.1122,312.9393,0,U,44793,999,4392,0,-.37E-6,0
BEIDOU-3 M21 (C43),2019-078B,2026-05-09T13:27:54.069408,1.86228037,.0004996,53.9454,301.1483,44.9088,315.1228,0,U,44794,999,4393,0,-.37E-6,0
BEIDOU-3 M19 (C41),2019-090A,2026-05-08T10:55:03.355680,1.86231845,.00193419,56.5258,64.1039,296.1478,239.2902,0,U,44864,999,4349,0,-.21E-6,0
BEIDOU-3 M20 (C42),2019-090B,2026-05-09T09:12:30.606048,1.86231698,.0017025,56.5282,64.1078,308.8996,218.8417,0,U,44865,999,4349,0,-.2E-6,0
BEIDOU-3 G2 (C60),2020-017A,2026-05-09T18:43:00.441408,1.00271085,.0002956,2.7872,46.7304,6.7743,174.8735,0,U,45344,999,2287,0,-.13E-5,0
BEIDOU-3 G3 (C61),2020-040A,2026-05-09T19:12:38.708928,1.00277704,.0003546,2.3531,67.3342,332.6006,226.3120,0,U,45807,999,2168,0,-.344E-5,0
BEIDOU-3 G4 (C62),2023-066A,2026-05-09T19:47:45.197088,1.00267791,.0003543,0.5382,322.4113,159.2746,182.9106,0,U,56564,999,1100,0,-.274E-5,0
BEIDOU-3 M28 (C50),2023-207A,2026-05-09T02:25:50.668896,1.86229786,.000432,55.7199,63.6215,328.5820,31.3823,0,U,58654,999,1611,0,-.22E-6,0
BEIDOU-3 M26 (C48),2023-207B,2026-05-08T21:34:14.231712,1.86229772,.00045841,55.7218,63.6147,308.3454,51.6033,0,U,58655,999,1609,0,-.23E-6,0
BEIDOU-3 M25 (C47),2024-168B,2026-05-08T17:19:56.032320,1.86230280,.00032196,54.5099,303.6138,315.5987,43.1750,0,U,61186,999,1104,0,-.38E-6,0
BEIDOU-3 M27 (C49),2024-168C,2026-05-09T01:18:48.153600,1.86230358,.00023476,54.5049,303.5853,41.6147,315.1318,0,U,61187,999,852,0,-.38E-6,0
